{
  "type": "FeatureCollection",
  "features": [
    {
      "type": "Feature",
      "properties": {
        "norad_id": 29869,
        "name": "FENGYUN 1C DEB",
        "group": "fengyun-1c-debris",
        "lat": 40.75915170735322,
        "lon": -93.31441063831386,
        "alt_km": 707.7150148058308,
        "timestamp": "2025-12-10T04:57:29.890115+00:00",
        "meta_object_name": "FENGYUN 1C DEB",
        "meta_object_id": "1999-025FP",
        "meta_epoch": "2025-12-09T18:52:06.448800",
        "meta_mean_motion": 14.36872664,
        "meta_eccentricity": 0.0087798,
        "meta_inclination": 98.8725,
        "meta_ra_of_asc_node": 273.9901,
        "meta_arg_of_pericenter": 19.7067,
        "meta_mean_anomaly": 7.9112,
        "meta_ephemeris_type": 0,
        "meta_classification_type": "U",
        "meta_norad_cat_id": 29869,
        "meta_element_set_no": 999,
        "meta_rev_at_epoch": 98778,
        "meta_bstar": 0.00078983,
        "meta_mean_motion_dot": 2.393e-05,
        "meta_mean_motion_ddot": 0,
        "tle_line1": "1 29869U 99025FP  25343.78618575  .00002393  00000+0  78983-3 0  9997",
        "tle_line2": "2 29869  98.8725 273.9901 0087798  19.7067   7.9112 14.36872664987781"
      },
      "geometry": {
        "type": "Point",
        "coordinates": [
          -93.31441063831386,
          40.75915170735322
        ]
      }
    },
    {
      "type": "Feature",
      "properties": {
        "norad_id": 29870,
        "name": "FENGYUN 1C DEB",
        "group": "fengyun-1c-debris",
        "lat": 37.764672882551714,
        "lon": 141.81989158810475,
        "alt_km": 746.4244712090413,
        "timestamp": "2025-12-10T04:57:29.890126+00:00",
        "meta_object_name": "FENGYUN 1C DEB",
        "meta_object_id": "1999-025FQ",
        "meta_epoch": "2025-12-09T10:33:02.627136",
        "meta_mean_motion": 14.28978976,
        "meta_eccentricity": 0.01196553,
        "meta_inclination": 98.4595,
        "meta_ra_of_asc_node": 314.4551,
        "meta_arg_of_pericenter": 202.1563,
        "meta_mean_anomaly": 317.3146,
        "meta_ephemeris_type": 0,
        "meta_classification_type": "U",
        "meta_norad_cat_id": 29870,
        "meta_element_set_no": 999,
        "meta_rev_at_epoch": 98546,
        "meta_bstar": 9.6196394e-05,
        "meta_mean_motion_dot": 2.19e-06,
        "meta_mean_motion_ddot": 0,
        "tle_line1": "1 29870U 99025FQ  25343.43961374  .00000219  00000+0  96196-4 0  9991",
        "tle_line2": "2 29870  98.4595 314.4551 0119655 202.1563 317.3146 14.28978976985465"
      },
      "geometry": {
        "type": "Point",
        "coordinates": [
          141.81989158810475,
          37.764672882551714
        ]
      }
    },
    {
      "type": "Feature",
      "properties": {
        "norad_id": 29871,
        "name": "FENGYUN 1C DEB",
        "group": "fengyun-1c-debris",
        "lat": -31.185597839534253,
        "lon": -57.30858919346686,
        "alt_km": 790.5272284130824,
        "timestamp": "2025-12-10T04:57:29.890136+00:00",
        "meta_object_name": "FENGYUN 1C DEB",
        "meta_object_id": "1999-025FR",
        "meta_epoch": "2025-12-09T14:55:21.074016",
        "meta_mean_motion": 14.42609926,
        "meta_eccentricity": 0.0058532,
        "meta_inclination": 98.9729,
        "meta_ra_of_asc_node": 296.5885,
        "meta_arg_of_pericenter": 116.6019,
        "meta_mean_anomaly": 56.7647,
        "meta_ephemeris_type": 0,
        "meta_classification_type": "U",
        "meta_norad_cat_id": 29871,
        "meta_element_set_no": 999,
        "meta_rev_at_epoch": 98656,
        "meta_bstar": 0.0014512,
        "meta_mean_motion_dot": 4.875e-05,
        "meta_mean_motion_ddot": 0,
        "tle_line1": "1 29871U 99025FR  25343.62177169  .00004875  00000+0  14512-2 0  9996",
        "tle_line2": "2 29871  98.9729 296.5885 0058532 116.6019  56.7647 14.42609926986565"
      },
      "geometry": {
        "type": "Point",
        "coordinates": [
          -57.30858919346686,
          -31.185597839534253
        ]
      }
    },
    {
      "type": "Feature",
      "properties": {
        "norad_id": 29872,
        "name": "FENGYUN 1C DEB",
        "group": "fengyun-1c-debris",
        "lat": 2.78867793804048,
        "lon": -179.3496159310164,
        "alt_km": 899.6332009432335,
        "timestamp": "2025-12-10T04:57:29.890146+00:00",
        "meta_object_name": "FENGYUN 1C DEB",
        "meta_object_id": "1999-025FS",
        "meta_epoch": "2025-12-08T23:45:09.246240",
        "meta_mean_motion": 14.38922932,
        "meta_eccentricity": 0.0235567,
        "meta_inclination": 98.3458,
        "meta_ra_of_asc_node": 359.0556,
        "meta_arg_of_pericenter": 324.9004,
        "meta_mean_anomaly": 33.6853,
        "meta_ephemeris_type": 0,
        "meta_classification_type": "U",
        "meta_norad_cat_id": 29872,
        "meta_element_set_no": 999,
        "meta_rev_at_epoch": 98538,
        "meta_bstar": 0.00080962,
        "meta_mean_motion_dot": 3.399e-05,
        "meta_mean_motion_ddot": 0,
        "tle_line1": "1 29872U 99025FS  25342.98969035  .00003399  00000+0  80962-3 0  9999",
        "tle_line2": "2 29872  98.3458 359.0556 0235567 324.9004  33.6853 14.38922932985384"
      },
      "geometry": {
        "type": "Point",
        "coordinates": [
          -179.3496159310164,
          2.78867793804048
        ]
      }
    },
    {
      "type": "Feature",
      "properties": {
        "norad_id": 29873,
        "name": "FENGYUN 1C DEB",
        "group": "fengyun-1c-debris",
        "lat": -80.53485272829477,
        "lon": -62.32961811243675,
        "alt_km": 876.9979457418158,
        "timestamp": "2025-12-10T04:57:29.890157+00:00",
        "meta_object_name": "FENGYUN 1C DEB",
        "meta_object_id": "1999-025FT",
        "meta_epoch": "2025-12-09T21:07:52.275360",
        "meta_mean_motion": 13.98145437,
        "meta_eccentricity": 0.00925,
        "meta_inclination": 99.4424,
        "meta_ra_of_asc_node": 203.8731,
        "meta_arg_of_pericenter": 206.8026,
        "meta_mean_anomaly": 221.0502,
        "meta_ephemeris_type": 0,
        "meta_classification_type": "U",
        "meta_norad_cat_id": 29873,
        "meta_element_set_no": 999,
        "meta_rev_at_epoch": 96275,
        "meta_bstar": 0.00023552,
        "meta_mean_motion_dot": 3e-06,
        "meta_mean_motion_ddot": 0,
        "tle_line1": "1 29873U 99025FT  25343.88046615  .00000300  00000+0  23552-3 0  9991",
        "tle_line2": "2 29873  99.4424 203.8731 0092500 206.8026 221.0502 13.98145437962753"
      },
      "geometry": {
        "type": "Point",
        "coordinates": [
          -62.32961811243675,
          -80.53485272829477
        ]
      }
    },
    {
      "type": "Feature",
      "properties": {
        "norad_id": 29874,
        "name": "FENGYUN 1C DEB",
        "group": "fengyun-1c-debris",
        "lat": -27.556626936823072,
        "lon": 56.78084115361551,
        "alt_km": 867.1314067370004,
        "timestamp": "2025-12-10T04:57:29.890168+00:00",
        "meta_object_name": "FENGYUN 1C DEB",
        "meta_object_id": "1999-025FU",
        "meta_epoch": "2025-12-09T06:43:04.168704",
        "meta_mean_motion": 14.28722887,
        "meta_eccentricity": 0.0105359,
        "meta_inclination": 98.3795,
        "meta_ra_of_asc_node": 240.3017,
        "meta_arg_of_pericenter": 0.7894,
        "meta_mean_anomaly": 123.9634,
        "meta_ephemeris_type": 0,
        "meta_classification_type": "U",
        "meta_norad_cat_id": 29874,
        "meta_element_set_no": 999,
        "meta_rev_at_epoch": 96798,
        "meta_bstar": 0.0039953,
        "meta_mean_motion_dot": 0.00010643,
        "meta_mean_motion_ddot": 0,
        "tle_line1": "1 29874U 99025FU  25343.27990936  .00010643  00000+0  39953-2 0  9991",
        "tle_line2": "2 29874  98.3795 240.3017 0105359   0.7894 123.9634 14.28722887967987"
      },
      "geometry": {
        "type": "Point",
        "coordinates": [
          56.78084115361551,
          -27.556626936823072
        ]
      }
    },
    {
      "type": "Feature",
      "properties": {
        "norad_id": 29875,
        "name": "FENGYUN 1C DEB",
        "group": "fengyun-1c-debris",
        "lat": 81.57383817051618,
        "lon": -50.78862825666161,
        "alt_km": 744.774061823251,
        "timestamp": "2025-12-10T04:57:29.890178+00:00",
        "meta_object_name": "FENGYUN 1C DEB",
        "meta_object_id": "1999-025FV",
        "meta_epoch": "2025-12-09T15:46:33.400128",
        "meta_mean_motion": 14.24877868,
        "meta_eccentricity": 0.0083237,
        "meta_inclination": 98.4056,
        "meta_ra_of_asc_node": 35.2118,
        "meta_arg_of_pericenter": 72.2137,
        "meta_mean_anomaly": 81.093,
        "meta_ephemeris_type": 0,
        "meta_classification_type": "U",
        "meta_norad_cat_id": 29875,
        "meta_element_set_no": 999,
        "meta_rev_at_epoch": 98278,
        "meta_bstar": 4.8582e-05,
        "meta_mean_motion_dot": 7.7e-07,
        "meta_mean_motion_ddot": 0,
        "tle_line1": "1 29875U 99025FV  25343.65733102  .00000077  00000+0  48582-4 0  9994",
        "tle_line2": "2 29875  98.4056  35.2118 0083237  72.2137  81.0930 14.24877868982780"
      },
      "geometry": {
        "type": "Point",
        "coordinates": [
          -50.78862825666161,
          81.57383817051618
        ]
      }
    }
  ]
}